{
  "type": "FeatureCollection",
  "features": [
    {
      "type": "Feature",
      "properties": {
        "norad_id": 30564,
        "name": "FENGYUN 1C DEB",
        "group": "fengyun-1c-debris",
        "lat": 22.134043106015987,
        "lon": -179.11026540700493,
        "alt_km": 752.0693438063463,
        "timestamp": "2025-12-11T10:53:16.164285+00:00",
        "meta_object_name": "FENGYUN 1C DEB",
        "meta_object_id": "1999-025ALE",
        "meta_epoch": "2025-12-10T19:36:26.583840",
        "meta_mean_motion": 14.05742993,
        "meta_eccentricity": 0.02029897,
        "meta_inclination": 98.7961,
        "meta_ra_of_asc_node": 356.6604,
        "meta_arg_of_pericenter": 124.247,
        "meta_mean_anomaly": 51.6482,
        "meta_ephemeris_type": 0,
        "meta_classification_type": "U",
        "meta_norad_cat_id": 30564,
        "meta_element_set_no": 999,
        "meta_rev_at_epoch": 96268,
        "meta_bstar": 0.00071784677,
        "meta_mean_motion_dot": 1.369e-05,
        "meta_mean_motion_ddot": 0,
        "tle_line1": "1 30564U 99025ALE 25344.81697435  .00001369  00000+0  71785-3 0  9993",
        "tle_line2": "2 30564  98.7961 356.6604 0202989 124.2470  51.6482 14.05742993962681"
      },
      "geometry": {
        "type": "Point",
        "coordinates": [
          -179.11026540700493,
          22.134043106015987
        ]
      }
    },
    {
      "type": "Feature",
      "properties": {
        "norad_id": 30565,
        "name": "FENGYUN 1C DEB",
        "group": "fengyun-1c-debris",
        "lat": -68.22885308677327,
        "lon": -122.38742778976643,
        "alt_km": 829.6634501797953,
        "timestamp": "2025-12-11T10:53:16.164295+00:00",
        "meta_object_name": "FENGYUN 1C DEB",
        "meta_object_id": "1999-025ALF",
        "meta_epoch": "2025-12-10T14:54:00.086112",
        "meta_mean_motion": 14.09913502,
        "meta_eccentricity": 0.0143148,
        "meta_inclination": 98.4526,
        "meta_ra_of_asc_node": 214.9712,
        "meta_arg_of_pericenter": 2.2761,
        "meta_mean_anomaly": 24.641,
        "meta_ephemeris_type": 0,
        "meta_classification_type": "U",
        "meta_norad_cat_id": 30565,
        "meta_element_set_no": 999,
        "meta_rev_at_epoch": 95897,
        "meta_bstar": 0.0026611,
        "meta_mean_motion_dot": 5.117e-05,
        "meta_mean_motion_ddot": 0,
        "tle_line1": "1 30565U 99025ALF 25344.62083433  .00005117  00000+0  26611-2 0  9992",
        "tle_line2": "2 30565  98.4526 214.9712 0143148   2.2761  24.6410 14.09913502958979"
      },
      "geometry": {
        "type": "Point",
        "coordinates": [
          -122.38742778976643,
          -68.22885308677327
        ]
      }
    },
    {
      "type": "Feature",
      "properties": {
        "norad_id": 30566,
        "name": "FENGYUN 1C DEB",
        "group": "fengyun-1c-debris",
        "lat": -43.460970313350465,
        "lon": -154.8941570333366,
        "alt_km": 821.391878491434,
        "timestamp": "2025-12-11T10:53:16.164306+00:00",
        "meta_object_name": "FENGYUN 1C DEB",
        "meta_object_id": "1999-025ALG",
        "meta_epoch": "2025-12-10T01:48:50.048928",
        "meta_mean_motion": 14.11666524,
        "meta_eccentricity": 0.00683784,
        "meta_inclination": 99.2163,
        "meta_ra_of_asc_node": 32.5418,
        "meta_arg_of_pericenter": 189.4574,
        "meta_mean_anomaly": 234.5717,
        "meta_ephemeris_type": 0,
        "meta_classification_type": "U",
        "meta_norad_cat_id": 30566,
        "meta_element_set_no": 999,
        "meta_rev_at_epoch": 96345,
        "meta_bstar": 0.0019704943,
        "meta_mean_motion_dot": 3.619e-05,
        "meta_mean_motion_ddot": 0,
        "tle_line1": "1 30566U 99025ALG 25344.07557927  .00003619  00000+0  19705-2 0  9997",
        "tle_line2": "2 30566  99.2163  32.5418 0068378 189.4574 234.5717 14.11666524963457"
      },
      "geometry": {
        "type": "Point",
        "coordinates": [
          -154.8941570333366,
          -43.460970313350465
        ]
      }
    },
    {
      "type": "Feature",
      "properties": {
        "norad_id": 30567,
        "name": "FENGYUN 1C DEB",
        "group": "fengyun-1c-debris",
        "lat": -13.75779858544705,
        "lon": 154.0072136292011,
        "alt_km": 788.9564521614511,
        "timestamp": "2025-12-11T10:53:16.164316+00:00",
        "meta_object_name": "FENGYUN 1C DEB",
        "meta_object_id": "1999-025ALH",
        "meta_epoch": "2025-12-11T05:09:23.154048",
        "meta_mean_motion": 14.08895949,
        "meta_eccentricity": 0.0108673,
        "meta_inclination": 98.7757,
        "meta_ra_of_asc_node": 335.9422,
        "meta_arg_of_pericenter": 193.6257,
        "meta_mean_anomaly": 229.5969,
        "meta_ephemeris_type": 0,
        "meta_classification_type": "U",
        "meta_norad_cat_id": 30567,
        "meta_element_set_no": 999,
        "meta_rev_at_epoch": 96752,
        "meta_bstar": 0.00043236,
        "meta_mean_motion_dot": 7.46e-06,
        "meta_mean_motion_ddot": 0,
        "tle_line1": "1 30567U 99025ALH 25345.21485132  .00000746  00000+0  43236-3 0  9998",
        "tle_line2": "2 30567  98.7757 335.9422 0108673 193.6257 229.5969 14.08895949967520"
      },
      "geometry": {
        "type": "Point",
        "coordinates": [
          154.0072136292011,
          -13.75779858544705
        ]
      }
    },
    {
      "type": "Feature",
      "properties": {
        "norad_id": 30568,
        "name": "FENGYUN 1C DEB",
        "group": "fengyun-1c-debris",
        "lat": -42.8061099537195,
        "lon": -32.839025467776864,
        "alt_km": 705.1457874116777,
        "timestamp": "2025-12-11T10:53:16.164326+00:00",
        "meta_object_name": "FENGYUN 1C DEB",
        "meta_object_id": "1999-025ALJ",
        "meta_epoch": "2025-12-10T10:53:08.523168",
        "meta_mean_motion": 14.5504619,
        "meta_eccentricity": 0.00164046,
        "meta_inclination": 98.9429,
        "meta_ra_of_asc_node": 154.4779,
        "meta_arg_of_pericenter": 201.2006,
        "meta_mean_anomaly": 186.4048,
        "meta_ephemeris_type": 0,
        "meta_classification_type": "U",
        "meta_norad_cat_id": 30568,
        "meta_element_set_no": 999,
        "meta_rev_at_epoch": 97626,
        "meta_bstar": 0.0053963367,
        "meta_mean_motion_dot": 0.00023331,
        "meta_mean_motion_ddot": 0,
        "tle_line1": "1 30568U 99025ALJ 25344.45357087  .00023331  00000+0  53963-2 0  9993",
        "tle_line2": "2 30568  98.9429 154.4779 0016404 201.2006 186.4048 14.55046190976264"
      },
      "geometry": {
        "type": "Point",
        "coordinates": [
          -32.839025467776864,
          -42.8061099537195
        ]
      }
    },
    {
      "type": "Feature",
      "properties": {
        "norad_id": 30569,
        "name": "FENGYUN 1C DEB",
        "group": "fengyun-1c-debris",
        "lat": 32.83644100277789,
        "lon": -49.9716277695028,
        "alt_km": 644.8058615239688,
        "timestamp": "2025-12-11T10:53:16.164337+00:00",
        "meta_object_name": "FENGYUN 1C DEB",
        "meta_object_id": "1999-025ALK",
        "meta_epoch": "2025-12-10T21:11:15.749952",
        "meta_mean_motion": 14.73529222,
        "meta_eccentricity": 0.0006584,
        "meta_inclination": 98.7391,
        "meta_ra_of_asc_node": 123.7168,
        "meta_arg_of_pericenter": 97.204,
        "meta_mean_anomaly": 262.9915,
        "meta_ephemeris_type": 0,
        "meta_classification_type": "U",
        "meta_norad_cat_id": 30569,
        "meta_element_set_no": 999,
        "meta_rev_at_epoch": 98179,
        "meta_bstar": 0.00541,
        "meta_mean_motion_dot": 0.00035306,
        "meta_mean_motion_ddot": 0,
        "tle_line1": "1 30569U 99025ALK 25344.88282118  .00035306  00000+0  54100-2 0  9992",
        "tle_line2": "2 30569  98.7391 123.7168 0006584  97.2040 262.9915 14.73529222981790"
      },
      "geometry": {
        "type": "Point",
        "coordinates": [
          -49.9716277695028,
          32.83644100277789
        ]
      }
    },
    {
      "type": "Feature",
      "properties": {
        "norad_id": 30570,
        "name": "FENGYUN 1C DEB",
        "group": "fengyun-1c-debris",
        "lat": -62.014146753108484,
        "lon": 34.783535182307624,
        "alt_km": 847.9292226986163,
        "timestamp": "2025-12-11T10:53:16.164347+00:00",
        "meta_object_name": "FENGYUN 1C DEB",
        "meta_object_id": "1999-025ALL",
        "meta_epoch": "2025-12-10T13:50:05.083872",
        "meta_mean_motion": 14.14262551,
        "meta_eccentricity": 0.0035174,
        "meta_inclination": 98.7154,
        "meta_ra_of_asc_node": 17.1499,
        "meta_arg_of_pericenter": 218.1754,
        "meta_mean_anomaly": 294.4935,
        "meta_ephemeris_type": 0,
        "meta_classification_type": "U",
        "meta_norad_cat_id": 30570,
        "meta_element_set_no": 999,
        "meta_rev_at_epoch": 96967,
        "meta_bstar": 0.00068041,
        "meta_mean_motion_dot": 1.264e-05,
        "meta_mean_motion_ddot": 0,
        "tle_line1": "1 30570U 99025ALL 25344.57644773  .00001264  00000+0  68041-3 0  9995",
        "tle_line2": "2 30570  98.7154  17.1499 0035174 218.1754 294.4935 14.14262551969674"
      },
      "geometry": {
        "type": "Point",
        "coordinates": [
          34.783535182307624,
          -62.014146753108484
        ]
      }
    }
  ]
}